CAS-2T & KS-1Q          
1 41847U 16066G   21033.78160659  .00000082  00000-0  23626-4 0  9997
2 41847  98.6224  92.2243 0364338 262.2403  93.7281 14.38141847222529
NAYIF-1 (EO-88)         
1 42017U 17008BX  21033.90371290  .00002547  00000-0  97521-4 0  9996
2 42017  97.3332 103.8651 0005119 212.0778 148.0151 15.27449275220718
ZHUHAI-1 02 (CAS-4B)    
1 42759U 17034B   21034.49112542  .00000084  00000-0  18508-4 0  9998
2 42759  43.0152 197.4717 0009450  35.8106  64.8075 15.10057559200898
ZHUHAI-1 01 (CAS-4A)    
1 42761U 17034D   21034.48930368  .00000146  00000-0  22195-4 0  9990
2 42761  43.0162 196.6317 0009649  38.5033  61.5267 15.10138771200891
MAX VALIER SAT          
1 42778U 17036P   21033.91244233  .00001196  00000-0  53443-4 0  9992
2 42778  97.2755  86.8230 0010399 293.6592  66.3554 15.23183679200804
RADFXSAT (FOX-1B)       
1 43017U 17073E   21034.48413676  .00000993  00000-0  81688-4 0  9998
2 43017  97.7165 303.7294 0256339  17.6660 343.3265 14.79291500173313
FOX-1D (AO-92)          
1 43137U 18004AC  21033.69088497  .00001746  00000-0  73335-4 0  9994
2 43137  97.4219 109.0519 0008071 335.7582  24.3275 15.24772111170121
DIWATA-2B               
1 43678U 18084H   21034.56679965  .00000190  00000-0  24642-4 0  9994
2 43678  97.9055 159.3260 0011134 128.6267 231.5987 14.91703409123473
ES'HAIL 2               
1 43700U 18090A   21034.12337691  .00000143  00000-0  00000+0 0  9991
2 43700   0.0184  92.9755 0002164 263.9876 206.7282  1.00271730  8264
FOX-1CLIFF (AO-95)      
1 43770U 18099N   21034.40984758  .00000764  00000-0  74574-4 0  9991
2 43770  97.6815 107.4683 0015606 141.7553 218.4778 14.95185693118426
ITASAT 1                
1 43786U 18099AE  21034.15547748  .00000641  00000-0  62918-4 0  9997
2 43786  97.6834 107.8034 0016323 136.0660 224.1862 14.95500415118411
JY1SAT (JO-97)          
1 43803U 18099AX  21033.73877865  .00000795  00000-0  76376-4 0  9999
2 43803  97.6792 107.1655 0016292 137.9484 222.2991 14.95714300118350
PSAT2 (NO-104)          
1 44354U 19036R   21033.94131439  .00012413  00000-0  16989-3 0  9999
2 44354  28.5317 301.1688 0341901 261.9806  94.1863 15.09230040 88602
BRICSAT2 (NO-103)       
1 44355U 19036S   21033.94436775  .00026614  00000-0  32685-3 0  9990
2 44355  28.5288 274.6258 0299360 305.1948  52.0957 15.20238260 88877
JAISAT-1                
1 44419U 19038F   21034.36691789  .00001218  00000-0  71703-4 0  9996
2 44419  97.5709 359.7528 0022684  56.9563 303.3843 15.13345320 87518
DUCHIFAT-3              
1 44854U 19089C   21034.47579832  .00000479  00000-0  44886-4 0  9991
2 44854  36.9642 172.8400 0006590 133.1352 226.9950 14.99313828 62983
RS-44 & BREEZE-KM R/B   
1 44909U 19096E   21033.52833102  .00000010  00000-0 -10667-4 0  9990
2 44909  82.5203 202.4412 0218091  48.7777 313.1896 12.79708367 51618
ORBITAL FACTORY 2 (OF-2)
1 45113U 19071C   21033.53209779  .00003542  00000-0  11466-3 0  9998
2 45113  51.6439 331.1768 0012576 162.9590 197.1818 15.34711209 56443
HUSKYSAT-1              
1 45119U 19071J   21034.39585748  .00002475  00000-0  83267-4 0  9995
2 45119  51.6433 326.4432 0011913 162.5723 197.5670 15.34823577 56572
BY70-2                  
1 45857U 20042B   21034.49403045  .00001072  00000-0  16054-3 0  9995
2 45857  97.9960 111.6147 0009444 283.6222  76.3928 14.76662750 31775
SALSAT                  
1 46495U 20068K   21033.88183959  .00000355  00000-0  30599-4 0  9997
2 46495  97.6835 332.2843 0017660 161.5250 198.6618 15.03344131 19119
BY70-3                  
1 46839U 20079N   21034.53002006  .00002241  00000-0  73249-4 0  9992
2 46839  97.2551 111.0427 0006313 339.3156 139.1505 15.32745922 13682
OSCAR 7 (AO-7)          
1 07530U 74089B   21034.51712226 -.00000028  00000-0  10815-3 0  9998
2 07530 101.8366   9.2566 0011988 280.2228 199.8918 12.53647171115189
